{
    "links": {
        "self": "http://www.neowsapp.com/rest/v1/neo/3766238?api_key=iIulBulltgU6a56xZRHN4H3l9WmuAYTsLGpBGhQ2"
    },
    "id": "3766238",
    "neo_reference_id": "3766238",
    "name": "(2016 YB11)",
    "designation": "2016 YB11",
    "nasa_jpl_url": "http://ssd.jpl.nasa.gov/sbdb.cgi?sstr=3766238",
    "absolute_magnitude_h": 21.6,
    "estimated_diameter": {
        "kilometers": {
            "estimated_diameter_min": 0.1272198785,
            "estimated_diameter_max": 0.2844722965
        },
        "meters": {
            "estimated_diameter_min": 127.2198785394,
            "estimated_diameter_max": 284.4722965033
        },
        "miles": {
            "estimated_diameter_min": 0.0790507431,
            "estimated_diameter_max": 0.1767628354
        },
        "feet": {
            "estimated_diameter_min": 417.3880663071,
            "estimated_diameter_max": 933.3080892598
        }
    },
    "is_potentially_hazardous_asteroid": true,
    "close_approach_data": [
        {
            "close_approach_date": "2016-12-11",
            "close_approach_date_full": "2016-Dec-11 10:54",
            "epoch_date_close_approach": 1481453640000,
            "relative_velocity": {
                "kilometers_per_second": "17.5192026201",
                "kilometers_per_hour": "63069.1294324424",
                "miles_per_hour": "39188.7043409529"
            },
            "miss_distance": {
                "astronomical": "0.1540780172",
                "lunar": "59.9363486908",
                "kilometers": "23049743.186943364",
                "miles": "14322446.2757078632"
            },
            "orbiting_body": "Earth"
        },
        {
            "close_approach_date": "2195-11-12",
            "close_approach_date_full": "2195-Nov-12 09:58",
            "epoch_date_close_approach": 7127603880000,
            "relative_velocity": {
                "kilometers_per_second": "10.8638002789",
                "kilometers_per_hour": "39109.681004116",
                "miles_per_hour": "24301.2348439186"
            },
            "miss_distance": {
                "astronomical": "0.1654828041",
                "lunar": "64.3728107949",
                "kilometers": "24755875.014987267",
                "miles": "15382587.4342556046"
            },
            "orbiting_body": "Earth"
        }
    ],
    "orbital_data": {
        "orbit_id": "7",
        "orbit_determination_date": "2017-04-06 08:21:15",
        "first_observation_date": "2016-12-30",
        "last_observation_date": "2017-01-17",
        "data_arc_in_days": 18,
        "observations_used": 57,
        "orbit_uncertainty": "8",
        "minimum_orbit_intersection": ".0426979",
        "jupiter_tisserand_invariant": "3.723",
        "epoch_osculation": "2457755.5",
        "eccentricity": ".5298941814011283",
        "semi_major_axis": "1.906326672417552",
        "inclination": "14.51597451855969",
        "ascending_node_longitude": "77.21872887332319",
        "orbital_period": "961.3785175858694",
        "perihelion_distance": ".8961752608537165",
        "perihelion_argument": "304.2080224369043",
        "aphelion_distance": "2.916478083981388",
        "perihelion_time": "2457696.248618243050",
        "mean_anomaly": "22.18740802120823",
        "mean_motion": ".374462288697693",
        "equinox": "J2000",
        "orbit_class": {
            "orbit_class_type": "APO",
            "orbit_class_description": "Near-Earth asteroid orbits which cross the Earth’s orbit similar to that of 1862 Apollo",
            "orbit_class_range": "a (semi-major axis) > 1.0 AU; q (perihelion) < 1.017 AU"
        }
    },
    "is_sentry_object": false
}